{
  "type": "FeatureCollection",
  "features": [
    {
      "type": "Feature",
      "properties": {
        "norad_id": 35996,
        "name": "COSMOS 2251 DEB",
        "group": "cosmos-2251-debris",
        "lat": -67.7265541542816,
        "lon": -57.18855655955452,
        "alt_km": 542.3402601085409,
        "timestamp": "2025-12-24T20:42:21.422434+00:00",
        "meta_object_name": "COSMOS 2251 DEB",
        "meta_object_id": "1993-036AWN",
        "meta_epoch": "2025-12-15T22:25:06.327264",
        "meta_mean_motion": 15.09228347,
        "meta_eccentricity": 0.00876626,
        "meta_inclination": 74.0159,
        "meta_ra_of_asc_node": 96.8248,
        "meta_arg_of_pericenter": 187.0066,
        "meta_mean_anomaly": 172.9909,
        "meta_ephemeris_type": 0,
        "meta_classification_type": "U",
        "meta_norad_cat_id": 35996,
        "meta_element_set_no": 999,
        "meta_rev_at_epoch": 72374,
        "meta_bstar": 0.00054952121,
        "meta_mean_motion_dot": 9.536e-05,
        "meta_mean_motion_ddot": 0,
        "tle_line1": "1 35996U 93036AWN 25349.93410101  .00009536  00000+0  54952-3 0  9995",
        "tle_line2": "2 35996  74.0159  96.8248 0087662 187.0066 172.9909 15.09228347723745"
      },
      "geometry": {
        "type": "Point",
        "coordinates": [
          -57.18855655955452,
          -67.7265541542816
        ]
      }
    },
    {
      "type": "Feature",
      "properties": {
        "norad_id": 35997,
        "name": "COSMOS 2251 DEB",
        "group": "cosmos-2251-debris",
        "lat": -21.043031528314472,
        "lon": 158.17520172257557,
        "alt_km": 727.7815556317228,
        "timestamp": "2025-12-24T20:42:21.422444+00:00",
        "meta_object_name": "COSMOS 2251 DEB",
        "meta_object_id": "1993-036AWP",
        "meta_epoch": "2025-12-23T05:06:13.780800",
        "meta_mean_motion": 14.51360271,
        "meta_eccentricity": 0.0015396,
        "meta_inclination": 74.0436,
        "meta_ra_of_asc_node": 167.5974,
        "meta_arg_of_pericenter": 242.7596,
        "meta_mean_anomaly": 117.1997,
        "meta_ephemeris_type": 0,
        "meta_classification_type": "U",
        "meta_norad_cat_id": 35997,
        "meta_element_set_no": 999,
        "meta_rev_at_epoch": 71036,
        "meta_bstar": 0.00062809556,
        "meta_mean_motion_dot": 2.48e-05,
        "meta_mean_motion_ddot": 0,
        "tle_line1": "1 35997U 93036AWP 25357.21265950  .00002480  00000+0  62810-3 0  9999",
        "tle_line2": "2 35997  74.0436 167.5974 0015396 242.7596 117.1997 14.51360271710369"
      },
      "geometry": {
        "type": "Point",
        "coordinates": [
          158.17520172257557,
          -21.043031528314472
        ]
      }
    },
    {
      "type": "Feature",
      "properties": {
        "norad_id": 36005,
        "name": "COSMOS 2251 DEB",
        "group": "cosmos-2251-debris",
        "lat": -15.604117148592742,
        "lon": -104.08722610318068,
        "alt_km": 695.510452270415,
        "timestamp": "2025-12-24T20:42:21.422468+00:00",
        "meta_object_name": "COSMOS 2251 DEB",
        "meta_object_id": "1993-036AWX",
        "meta_epoch": "2025-12-23T22:14:08.155392",
        "meta_mean_motion": 14.4737424,
        "meta_eccentricity": 0.0061558,
        "meta_inclination": 74.027,
        "meta_ra_of_asc_node": 73.0757,
        "meta_arg_of_pericenter": 208.0822,
        "meta_mean_anomaly": 151.7013,
        "meta_ephemeris_type": 0,
        "meta_classification_type": "U",
        "meta_norad_cat_id": 36005,
        "meta_element_set_no": 999,
        "meta_rev_at_epoch": 87746,
        "meta_bstar": 0.0001839,
        "meta_mean_motion_dot": 6.62e-06,
        "meta_mean_motion_ddot": 0,
        "tle_line1": "1 36005U 93036AWX 25357.92648328  .00000662  00000+0  18390-3 0  9996",
        "tle_line2": "2 36005  74.0270  73.0757 0061558 208.0822 151.7013 14.47374240877468"
      },
      "geometry": {
        "type": "Point",
        "coordinates": [
          -104.08722610318068,
          -15.604117148592742
        ]
      }
    },
    {
      "type": "Feature",
      "properties": {
        "norad_id": 36045,
        "name": "COSMOS 2251 DEB",
        "group": "cosmos-2251-debris",
        "lat": 19.735757517956216,
        "lon": -150.80118767246694,
        "alt_km": 673.787044140653,
        "timestamp": "2025-12-24T20:42:21.422478+00:00",
        "meta_object_name": "COSMOS 2251 DEB",
        "meta_object_id": "1993-036AXG",
        "meta_epoch": "2025-12-17T21:23:36.435552",
        "meta_mean_motion": 14.69971183,
        "meta_eccentricity": 0.0048002,
        "meta_inclination": 73.7643,
        "meta_ra_of_asc_node": 48.9349,
        "meta_arg_of_pericenter": 60.9199,
        "meta_mean_anomaly": 299.6765,
        "meta_ephemeris_type": 0,
        "meta_classification_type": "U",
        "meta_norad_cat_id": 36045,
        "meta_element_set_no": 999,
        "meta_rev_at_epoch": 8464,
        "meta_bstar": 0.0014164853,
        "meta_mean_motion_dot": 8.618e-05,
        "meta_mean_motion_ddot": 0,
        "tle_line1": "1 36045U 93036AXG 25351.89139393  .00008618  00000+0  14165-2 0  9991",
        "tle_line2": "2 36045  73.7643  48.9349 0048002  60.9199 299.6765 14.69971183 84640"
      },
      "geometry": {
        "type": "Point",
        "coordinates": [
          -150.80118767246694,
          19.735757517956216
        ]
      }
    },
    {
      "type": "Feature",
      "properties": {
        "norad_id": 36046,
        "name": "COSMOS 2251 DEB",
        "group": "cosmos-2251-debris",
        "lat": 14.082395827390277,
        "lon": -102.7341479448304,
        "alt_km": 639.842034701267,
        "timestamp": "2025-12-24T20:42:21.422488+00:00",
        "meta_object_name": "COSMOS 2251 DEB",
        "meta_object_id": "1993-036AXH",
        "meta_epoch": "2025-12-21T00:56:56.522112",
        "meta_mean_motion": 14.65315014,
        "meta_eccentricity": 0.00558701,
        "meta_inclination": 74.0169,
        "meta_ra_of_asc_node": 260.5061,
        "meta_arg_of_pericenter": 44.1197,
        "meta_mean_anomaly": 331.1837,
        "meta_ephemeris_type": 0,
        "meta_classification_type": "U",
        "meta_norad_cat_id": 36046,
        "meta_element_set_no": 999,
        "meta_rev_at_epoch": 64125,
        "meta_bstar": 0.00034570915,
        "meta_mean_motion_dot": 1.877e-05,
        "meta_mean_motion_ddot": 0,
        "tle_line1": "1 36046U 93036AXH 25355.03954308  .00001877  00000+0  34571-3 0  9997",
        "tle_line2": "2 36046  74.0169 260.5061 0055870  44.1197 331.1837 14.65315014641253"
      },
      "geometry": {
        "type": "Point",
        "coordinates": [
          -102.7341479448304,
          14.082395827390277
        ]
      }
    },
    {
      "type": "Feature",
      "properties": {
        "norad_id": 36047,
        "name": "COSMOS 2251 DEB",
        "group": "cosmos-2251-debris",
        "lat": -34.52791479985205,
        "lon": 141.02116408339685,
        "alt_km": 586.4563478869968,
        "timestamp": "2025-12-24T20:42:21.422498+00:00",
        "meta_object_name": "COSMOS 2251 DEB",
        "meta_object_id": "1993-036AXJ",
        "meta_epoch": "2025-12-21T21:08:53.075040",
        "meta_mean_motion": 14.96393257,
        "meta_eccentricity": 0.000841,
        "meta_inclination": 74.036,
        "meta_ra_of_asc_node": 315.6865,
        "meta_arg_of_pericenter": 344.906,
        "meta_mean_anomaly": 15.1873,
        "meta_ephemeris_type": 0,
        "meta_classification_type": "U",
        "meta_norad_cat_id": 36047,
        "meta_element_set_no": 999,
        "meta_rev_at_epoch": 66076,
        "meta_bstar": 0.0028311075,
        "meta_mean_motion_dot": 0.00032218,
        "meta_mean_motion_ddot": 0,
        "tle_line1": "1 36047U 93036AXJ 25355.88116985  .00032218  00000+0  28311-2 0  9999",
        "tle_line2": "2 36047  74.0360 315.6865 0008410 344.9060  15.1873 14.96393257660764"
      },
      "geometry": {
        "type": "Point",
        "coordinates": [
          141.02116408339685,
          -34.52791479985205
        ]
      }
    },
    {
      "type": "Feature",
      "properties": {
        "norad_id": 36048,
        "name": "COSMOS 2251 DEB",
        "group": "cosmos-2251-debris",
        "lat": 56.69347003384193,
        "lon": 71.20196702877972,
        "alt_km": 777.2368727946841,
        "timestamp": "2025-12-24T20:42:21.422508+00:00",
        "meta_object_name": "COSMOS 2251 DEB",
        "meta_object_id": "1993-036AXK",
        "meta_epoch": "2025-12-24T05:49:54.076800",
        "meta_mean_motion": 14.37870859,
        "meta_eccentricity": 0.00270494,
        "meta_inclination": 74.0572,
        "meta_ra_of_asc_node": 278.1302,
        "meta_arg_of_pericenter": 326.0168,
        "meta_mean_anomaly": 186.6342,
        "meta_ephemeris_type": 0,
        "meta_classification_type": "U",
        "meta_norad_cat_id": 36048,
        "meta_element_set_no": 999,
        "meta_rev_at_epoch": 85667,
        "meta_bstar": 0.00026274034,
        "meta_mean_motion_dot": 7.7e-06,
        "meta_mean_motion_ddot": 0,
        "tle_line1": "1 36048U 93036AXK 25358.24298700  .00000770  00000+0  26274-3 0  9994",
        "tle_line2": "2 36048  74.0572 278.1302 0027049 326.0168 186.6342 14.37870859856673"
      },
      "geometry": {
        "type": "Point",
        "coordinates": [
          71.20196702877972,
          56.69347003384193
        ]
      }
    }
  ]
}